STARLINK-1610
1 26163C 20057AY  21325.02208029  .00004041  00000-0  27071-3 0  3252
2 26163  53.0528 123.1404 0001555  85.9711 220.0851 15.06404531    15
